ONEWEB-0207             
1 48242U 21031AJ  26134.00129946 -.00000124  00000+0 -37023-3 0  9990
2 48242  87.8939 296.5172 0001842 104.2354 255.8981 13.14503796243806
ONEWEB-0208             
1 48243U 21031AK  26134.21143558  .00000175  00000+0  43669-3 0  9996
2 48243  87.8933 296.4830 0001447  94.3327 265.7968 13.14503357243843
ONEWEB-0200             
1 48244U 21031AL  26134.17494272 -.00000223  00000+0 -63701-3 0  9999
2 48244  87.8927 296.4768 0001687  98.0001 262.1321 13.14503960243768
ONEWEB-0217             
1 48245U 21031AM  26133.96245328  .00000498  00000+0  13087-2 0  9995
2 48245  87.8937 296.5223 0001432  95.7509 264.3784 13.14501907243689
ONEWEB-0211             
1 48767U 21045A   26134.28603835  .00000100  00000+0  22937-3 0  9991
2 48767  87.8981 265.8455 0001247  87.5930 272.5343 13.16194969239982
ONEWEB-0223             
1 48768U 21045B   26134.27170310  .00000198  00000+0  49181-3 0  9995
2 48768  87.8987 265.9480 0001581  88.0177 272.1135 13.15549326239949
ONEWEB-0230             
1 48769U 21045C   26134.31922987 -.00000116  00000+0 -34155-3 0  9993
2 48769  87.8974 265.9551 0002023 100.2784 259.8575 13.15553144240213
ONEWEB-0237             
1 48770U 21045D   26134.30814851 -.00000076  00000+0 -23713-3 0  9997
2 48770  87.8974 265.9587 0001846  90.8234 269.3108 13.15549212239936
ONEWEB-0235             
1 48771U 21045E   26134.28277259  .00000203  00000+0  50455-3 0  9993
2 48771  87.8987 265.9467 0001674  86.8708 273.2614 13.15549884239928
ONEWEB-0242             
1 48772U 21045F   26133.43980778  .00000152  00000+0  37037-3 0  9991
2 48772  87.8986 266.1111 0001933  94.0034 266.1318 13.15546664239855
ONEWEB-0241             
1 48773U 21045G   26134.26378512  .00000072  00000+0  15667-3 0  9997
2 48773  87.8974 265.9690 0001501  92.4893 267.6409 13.15548980239870
ONEWEB-0243             
1 48774U 21045H   26134.29546539  .00000091  00000+0  20677-3 0  9995
2 48774  87.8978 265.9745 0002105  84.7529 275.3842 13.15549963239900
ONEWEB-0222             
1 48775U 21045J   26134.27883006  .00000164  00000+0  40082-3 0  9990
2 48775  87.8984 265.9428 0001754  95.7979 264.3352 13.15550040239942
ONEWEB-0244             
1 48776U 21045K   26134.30496661 -.00000069  00000+0 -21839-3 0  9997
2 48776  87.8991 265.9299 0001856  94.5903 265.5440 13.15549937240513
ONEWEB-0247             
1 48777U 21045L   26134.30180993 -.00000041  00000+0 -14194-3 0  9992
2 48777  87.8977 265.9677 0002002  74.4939 285.6412 13.15549454239950
ONEWEB-0245             
1 48778U 21045M   26134.29705298  .00000023  00000+0  27839-4 0  9991
2 48778  87.8988 265.9447 0001622  99.1823 260.9491 13.15549048239920
