[{"OBJECT_NAME":"ONEWEB-0207","OBJECT_ID":"2021-031AJ","EPOCH":"2026-05-14T00:01:52.273344","MEAN_MOTION":13.14503796,"ECCENTRICITY":0.0001842,"INCLINATION":87.8939,"RA_OF_ASC_NODE":296.5172,"ARG_OF_PERICENTER":104.2354,"MEAN_ANOMALY":255.8981,"EPHEMERIS_TYPE":0,"CLASSIFICATION_TYPE":"U","NORAD_CAT_ID":48242,"ELEMENT_SET_NO":999,"REV_AT_EPOCH":24380,"BSTAR":-0.00037023000000000004,"MEAN_MOTION_DOT":-1.24e-06,"MEAN_MOTION_DDOT":0.0},{"OBJECT_NAME":"ONEWEB-0208","OBJECT_ID":"2021-031AK","EPOCH":"2026-05-14T05:04:28.034112","MEAN_MOTION":13.14503357,"ECCENTRICITY":0.0001447,"INCLINATION":87.8933,"RA_OF_ASC_NODE":296.483,"ARG_OF_PERICENTER":94.3327,"MEAN_ANOMALY":265.7968,"EPHEMERIS_TYPE":0,"CLASSIFICATION_TYPE":"U","NORAD_CAT_ID":48243,"ELEMENT_SET_NO":999,"REV_AT_EPOCH":24384,"BSTAR":0.00043669000000000005,"MEAN_MOTION_DOT":1.75e-06,"MEAN_MOTION_DDOT":0.0},{"OBJECT_NAME":"ONEWEB-0200","OBJECT_ID":"2021-031AL","EPOCH":"2026-05-14T04:11:55.051008","MEAN_MOTION":13.1450396,"ECCENTRICITY":0.0001687,"INCLINATION":87.8927,"RA_OF_ASC_NODE":296.4768,"ARG_OF_PERICENTER":98.0001,"MEAN_ANOMALY":262.1321,"EPHEMERIS_TYPE":0,"CLASSIFICATION_TYPE":"U","NORAD_CAT_ID":48244,"ELEMENT_SET_NO":999,"REV_AT_EPOCH":24376,"BSTAR":-0.00063701,"MEAN_MOTION_DOT":-2.23e-06,"MEAN_MOTION_DDOT":0.0},{"OBJECT_NAME":"ONEWEB-0217","OBJECT_ID":"2021-031AM","EPOCH":"2026-05-13T23:05:55.963392","MEAN_MOTION":13.14501907,"ECCENTRICITY":0.0001432,"INCLINATION":87.8937,"RA_OF_ASC_NODE":296.5223,"ARG_OF_PERICENTER":95.7509,"MEAN_ANOMALY":264.3784,"EPHEMERIS_TYPE":0,"CLASSIFICATION_TYPE":"U","NORAD_CAT_ID":48245,"ELEMENT_SET_NO":999,"REV_AT_EPOCH":24368,"BSTAR":0.0013086999999999999,"MEAN_MOTION_DOT":4.98e-06,"MEAN_MOTION_DDOT":0.0},{"OBJECT_NAME":"ONEWEB-0211","OBJECT_ID":"2021-045A","EPOCH":"2026-05-14T06:51:53.713440","MEAN_MOTION":13.16194969,"ECCENTRICITY":0.0001247,"INCLINATION":87.8981,"RA_OF_ASC_NODE":265.8455,"ARG_OF_PERICENTER":87.593,"MEAN_ANOMALY":272.5343,"EPHEMERIS_TYPE":0,"CLASSIFICATION_TYPE":"U","NORAD_CAT_ID":48767,"ELEMENT_SET_NO":999,"REV_AT_EPOCH":23998,"BSTAR":0.00022937,"MEAN_MOTION_DOT":1e-06,"MEAN_MOTION_DDOT":0.0},{"OBJECT_NAME":"ONEWEB-0223","OBJECT_ID":"2021-045B","EPOCH":"2026-05-14T06:31:15.147840","MEAN_MOTION":13.15549326,"ECCENTRICITY":0.0001581,"INCLINATION":87.8987,"RA_OF_ASC_NODE":265.948,"ARG_OF_PERICENTER":88.0177,"MEAN_ANOMALY":272.1135,"EPHEMERIS_TYPE":0,"CLASSIFICATION_TYPE":"U","NORAD_CAT_ID":48768,"ELEMENT_SET_NO":999,"REV_AT_EPOCH":23994,"BSTAR":0.0004918100000000001,"MEAN_MOTION_DOT":1.98e-06,"MEAN_MOTION_DDOT":0.0},{"OBJECT_NAME":"ONEWEB-0230","OBJECT_ID":"2021-045C","EPOCH":"2026-05-14T07:39:41.460768","MEAN_MOTION":13.15553144,"ECCENTRICITY":0.0002023,"INCLINATION":87.8974,"RA_OF_ASC_NODE":265.9551,"ARG_OF_PERICENTER":100.2784,"MEAN_ANOMALY":259.8575,"EPHEMERIS_TYPE":0,"CLASSIFICATION_TYPE":"U","NORAD_CAT_ID":48769,"ELEMENT_SET_NO":999,"REV_AT_EPOCH":24021,"BSTAR":-0.00034155000000000003,"MEAN_MOTION_DOT":-1.16e-06,"MEAN_MOTION_DDOT":0.0},{"OBJECT_NAME":"ONEWEB-0237","OBJECT_ID":"2021-045D","EPOCH":"2026-05-14T07:23:44.031264","MEAN_MOTION":13.15549212,"ECCENTRICITY":0.0001846,"INCLINATION":87.8974,"RA_OF_ASC_NODE":265.9587,"ARG_OF_PERICENTER":90.8234,"MEAN_ANOMALY":269.3108,"EPHEMERIS_TYPE":0,"CLASSIFICATION_TYPE":"U","NORAD_CAT_ID":48770,"ELEMENT_SET_NO":999,"REV_AT_EPOCH":23993,"BSTAR":-0.00023713,"MEAN_MOTION_DOT":-7.6e-07,"MEAN_MOTION_DDOT":0.0},{"OBJECT_NAME":"ONEWEB-0235","OBJECT_ID":"2021-045E","EPOCH":"2026-05-14T06:47:11.551776","MEAN_MOTION":13.15549884,"ECCENTRICITY":0.0001674,"INCLINATION":87.8987,"RA_OF_ASC_NODE":265.9467,"ARG_OF_PERICENTER":86.8708,"MEAN_ANOMALY":273.2614,"EPHEMERIS_TYPE":0,"CLASSIFICATION_TYPE":"U","NORAD_CAT_ID":48771,"ELEMENT_SET_NO":999,"REV_AT_EPOCH":23992,"BSTAR":0.0005045500000000001,"MEAN_MOTION_DOT":2.03e-06,"MEAN_MOTION_DDOT":0.0},{"OBJECT_NAME":"ONEWEB-0242","OBJECT_ID":"2021-045F","EPOCH":"2026-05-13T10:33:19.392192","MEAN_MOTION":13.15546664,"ECCENTRICITY":0.0001933,"INCLINATION":87.8986,"RA_OF_ASC_NODE":266.1111,"ARG_OF_PERICENTER":94.0034,"MEAN_ANOMALY":266.1318,"EPHEMERIS_TYPE":0,"CLASSIFICATION_TYPE":"U","NORAD_CAT_ID":48772,"ELEMENT_SET_NO":999,"REV_AT_EPOCH":23985,"BSTAR":0.00037036999999999997,"MEAN_MOTION_DOT":1.52e-06,"MEAN_MOTION_DDOT":0.0},{"OBJECT_NAME":"ONEWEB-0241","OBJECT_ID":"2021-045G","EPOCH":"2026-05-14T06:19:51.034368","MEAN_MOTION":13.1554898,"ECCENTRICITY":0.0001501,"INCLINATION":87.8974,"RA_OF_ASC_NODE":265.969,"ARG_OF_PERICENTER":92.4893,"MEAN_ANOMALY":267.6409,"EPHEMERIS_TYPE":0,"CLASSIFICATION_TYPE":"U","NORAD_CAT_ID":48773,"ELEMENT_SET_NO":999,"REV_AT_EPOCH":23987,"BSTAR":0.00015667,"MEAN_MOTION_DOT":7.2e-07,"MEAN_MOTION_DDOT":0.0},{"OBJECT_NAME":"ONEWEB-0243","OBJECT_ID":"2021-045H","EPOCH":"2026-05-14T07:05:28.209696","MEAN_MOTION":13.15549963,"ECCENTRICITY":0.0002105,"INCLINATION":87.8978,"RA_OF_ASC_NODE":265.9745,"ARG_OF_PERICENTER":84.7529,"MEAN_ANOMALY":275.3842,"EPHEMERIS_TYPE":0,"CLASSIFICATION_TYPE":"U","NORAD_CAT_ID":48774,"ELEMENT_SET_NO":999,"REV_AT_EPOCH":23990,"BSTAR":0.00020677,"MEAN_MOTION_DOT":9.1e-07,"MEAN_MOTION_DDOT":0.0},{"OBJECT_NAME":"ONEWEB-0222","OBJECT_ID":"2021-045J","EPOCH":"2026-05-14T06:41:30.917184","MEAN_MOTION":13.1555004,"ECCENTRICITY":0.0001754,"INCLINATION":87.8984,"RA_OF_ASC_NODE":265.9428,"ARG_OF_PERICENTER":95.7979,"MEAN_ANOMALY":264.3352,"EPHEMERIS_TYPE":0,"CLASSIFICATION_TYPE":"U","NORAD_CAT_ID":48775,"ELEMENT_SET_NO":999,"REV_AT_EPOCH":23994,"BSTAR":0.00040082000000000003,"MEAN_MOTION_DOT":1.64e-06,"MEAN_MOTION_DDOT":0.0},{"OBJECT_NAME":"ONEWEB-0244","OBJECT_ID":"2021-045K","EPOCH":"2026-05-14T07:19:09.115104","MEAN_MOTION":13.15549937,"ECCENTRICITY":0.0001856,"INCLINATION":87.8991,"RA_OF_ASC_NODE":265.9299,"ARG_OF_PERICENTER":94.5903,"MEAN_ANOMALY":265.544,"EPHEMERIS_TYPE":0,"CLASSIFICATION_TYPE":"U","NORAD_CAT_ID":48776,"ELEMENT_SET_NO":999,"REV_AT_EPOCH":24051,"BSTAR":-0.00021839,"MEAN_MOTION_DOT":-6.9e-07,"MEAN_MOTION_DDOT":0.0},{"OBJECT_NAME":"ONEWEB-0247","OBJECT_ID":"2021-045L","EPOCH":"2026-05-14T07:14:36.377952","MEAN_MOTION":13.15549454,"ECCENTRICITY":0.0002002,"INCLINATION":87.8977,"RA_OF_ASC_NODE":265.9677,"ARG_OF_PERICENTER":74.4939,"MEAN_ANOMALY":285.6412,"EPHEMERIS_TYPE":0,"CLASSIFICATION_TYPE":"U","NORAD_CAT_ID":48777,"ELEMENT_SET_NO":999,"REV_AT_EPOCH":23995,"BSTAR":-0.00014194,"MEAN_MOTION_DOT":-4.1e-07,"MEAN_MOTION_DDOT":0.0},{"OBJECT_NAME":"ONEWEB-0245","OBJECT_ID":"2021-045M","EPOCH":"2026-05-14T07:07:45.377472","MEAN_MOTION":13.15549048,"ECCENTRICITY":0.0001622,"INCLINATION":87.8988,"RA_OF_ASC_NODE":265.9447,"ARG_OF_PERICENTER":99.1823,"MEAN_ANOMALY":260.9491,"EPHEMERIS_TYPE":0,"CLASSIFICATION_TYPE":"U","NORAD_CAT_ID":48778,"ELEMENT_SET_NO":999,"REV_AT_EPOCH":23992,"BSTAR":2.7839000000000002e-05,"MEAN_MOTION_DOT":2.3e-07,"MEAN_MOTION_DDOT":0.0}]